{"fetched_at":"2026-07-12T17:33:03.536Z","source":"https://celestrak.org/NORAD/elements/gp.php?NAME=SENTINEL&FORMAT=JSON","constellation":"sentinel-2","records":[{"OBJECT_NAME":"SENTINEL-2A","OBJECT_ID":"2015-028A","EPOCH":"2026-07-12T11:01:36.077376","CLASSIFICATION_TYPE":"U","MEAN_MOTION":14.30814754,"ECCENTRICITY":0.0001285,"INCLINATION":98.5682,"RA_OF_ASC_NODE":267.9515,"ARG_OF_PERICENTER":95.4283,"MEAN_ANOMALY":264.7047,"EPHEMERIS_TYPE":0,"NORAD_CAT_ID":40697,"ELEMENT_SET_NO":999,"REV_AT_EPOCH":57734,"BSTAR":0.00013313,"MEAN_MOTION_DOT":0.00000305,"MEAN_MOTION_DDOT":0},{"OBJECT_NAME":"SENTINEL-2B","OBJECT_ID":"2017-013A","EPOCH":"2026-07-12T12:31:57.019008","CLASSIFICATION_TYPE":"U","MEAN_MOTION":14.30815813,"ECCENTRICITY":0.0001232,"INCLINATION":98.5689,"RA_OF_ASC_NODE":267.9383,"ARG_OF_PERICENTER":90.5049,"MEAN_ANOMALY":269.6275,"EPHEMERIS_TYPE":0,"NORAD_CAT_ID":42063,"ELEMENT_SET_NO":999,"REV_AT_EPOCH":48826,"BSTAR":0.00016515,"MEAN_MOTION_DOT":0.00000389,"MEAN_MOTION_DDOT":0},{"OBJECT_NAME":"SENTINEL-2C","OBJECT_ID":"2024-157A","EPOCH":"2026-07-12T03:18:07.632576","CLASSIFICATION_TYPE":"U","MEAN_MOTION":14.30815122,"ECCENTRICITY":0.00009426,"INCLINATION":98.5685,"RA_OF_ASC_NODE":267.5657,"ARG_OF_PERICENTER":100.4834,"MEAN_ANOMALY":259.6456,"EPHEMERIS_TYPE":0,"NORAD_CAT_ID":60989,"ELEMENT_SET_NO":999,"REV_AT_EPOCH":9655,"BSTAR":0.000028739081,"MEAN_MOTION_DOT":3.2e-7,"MEAN_MOTION_DDOT":0}]}
