SENTINEL-2A             
1 40697U 15028A   26193.45944534  .00000305  00000+0  13313-3 0  9992
2 40697  98.5682 267.9515 0001285  95.4283 264.7047 14.30814754577341
SENTINEL-2B             
1 42063U 17013A   26193.52218772  .00000389  00000+0  16515-3 0  9992
2 42063  98.5689 267.9383 0001232  90.5049 269.6275 14.30815813488264
SENTINEL-2C             
1 60989U 24157A   26193.13758834  .00000032  00000+0  28739-4 0  9998
2 60989  98.5685 267.5657 0000942 100.4834 259.6456 14.30815122 96557
